CCSDS_OMM_VERS = 2.0
CREATION_DATE  = 
ORIGINATOR     = 

OBJECT_NAME    = GSLV R/B
OBJECT_ID      = 2022-138AN
CENTER_NAME    = EARTH
REF_FRAME      = TEME
TIME_SYSTEM    = UTC
MEAN_ELEMENT_THEORY = SGP/SGP4

EPOCH          = 2026-02-28T19:53:27.915648
MEAN_MOTION    = 14.96694880
ECCENTRICITY   = .00217367
INCLINATION    = 87.3878
RA_OF_ASC_NODE = 169.3271
ARG_OF_PERICENTER = 177.5407
MEAN_ANOMALY   = 182.5936

EPHEMERIS_TYPE = 0
CLASSIFICATION_TYPE = U
NORAD_CAT_ID   = 54149
ELEMENT_SET_NO = 999
REV_AT_EPOCH   = 18260
BSTAR          = .3281984E-3
MEAN_MOTION_DOT = .3791E-4
MEAN_MOTION_DDOT = 0

CCSDS_OMM_VERS = 2.0
CREATION_DATE  = 
ORIGINATOR     = 

OBJECT_NAME    = XRISM
OBJECT_ID      = 2023-137A
CENTER_NAME    = EARTH
REF_FRAME      = TEME
TIME_SYSTEM    = UTC
MEAN_ELEMENT_THEORY = SGP/SGP4

EPOCH          = 2026-03-01T01:19:49.939968
MEAN_MOTION    = 15.11376997
ECCENTRICITY   = .0008239
INCLINATION    = 31.0035
RA_OF_ASC_NODE = 339.5050
ARG_OF_PERICENTER = 311.9098
MEAN_ANOMALY   = 48.0837

EPHEMERIS_TYPE = 0
CLASSIFICATION_TYPE = U
NORAD_CAT_ID   = 57800
ELEMENT_SET_NO = 999
REV_AT_EPOCH   = 13648
BSTAR          = .37053E-3
MEAN_MOTION_DOT = .6511E-4
MEAN_MOTION_DDOT = 0

CCSDS_OMM_VERS = 2.0
CREATION_DATE  = 
ORIGINATOR     = 

OBJECT_NAME    = ACS3
OBJECT_ID      = 2024-077B
CENTER_NAME    = EARTH
REF_FRAME      = TEME
TIME_SYSTEM    = UTC
MEAN_ELEMENT_THEORY = SGP/SGP4

EPOCH          = 2026-02-28T20:32:45.353472
MEAN_MOTION    = 13.89150767
ECCENTRICITY   = .0053635
INCLINATION    = 97.2121
RA_OF_ASC_NODE = 2.9536
ARG_OF_PERICENTER = 100.8109
MEAN_ANOMALY   = 259.9098

EPHEMERIS_TYPE = 0
CLASSIFICATION_TYPE = U
NORAD_CAT_ID   = 59588
ELEMENT_SET_NO = 999
REV_AT_EPOCH   = 9297
BSTAR          = .14349E-1
MEAN_MOTION_DOT = .1764E-3
MEAN_MOTION_DDOT = 0

CCSDS_OMM_VERS = 2.0
CREATION_DATE  = 
ORIGINATOR     = 

OBJECT_NAME    = SZ-21 MODULE
OBJECT_ID      = 2025-246C
CENTER_NAME    = EARTH
REF_FRAME      = TEME
TIME_SYSTEM    = UTC
MEAN_ELEMENT_THEORY = SGP/SGP4

EPOCH          = 2026-02-28T14:01:25.580640
MEAN_MOTION    = 15.67747367
ECCENTRICITY   = .0001436
INCLINATION    = 41.4737
RA_OF_ASC_NODE = 259.3806
ARG_OF_PERICENTER = 285.8647
MEAN_ANOMALY   = 74.2036

EPHEMERIS_TYPE = 0
CLASSIFICATION_TYPE = U
NORAD_CAT_ID   = 66515
ELEMENT_SET_NO = 999
REV_AT_EPOCH   = 1664
BSTAR          = .31267443E-3
MEAN_MOTION_DOT = .35117E-3
MEAN_MOTION_DDOT = 0

