GSLV R/B                
1 54149U 22138AN  26059.82879532  .00003791  00000+0  32820-3 0  9992
2 54149  87.3878 169.3271 0021736 177.5407 182.5936 14.96694880182601
XRISM                   
1 57800U 23137A   26060.05543912  .00006511  00000+0  37053-3 0  9992
2 57800  31.0035 339.5050 0008239 311.9098  48.0837 15.11376997136483
ACS3                    
1 59588U 24077B   26059.85608048  .00017640  00000+0  14349-1 0  9995
2 59588  97.2121   2.9536 0053635 100.8109 259.9098 13.89150767 92971
SZ-21 MODULE            
1 66515U 25246C   26059.58432385  .00035117  00000+0  31267-3 0  9990
2 66515  41.4737 259.3806 0001436 285.8647  74.2036 15.67747367 16640
